start=new Date('2022-10-31T00:00:00.000Z').valueOf();
sats=[{"RA_OF_ASC_NODE":"89.6585","TLE_LINE1":"1 48387U 21038AL  22303.83893516 -.00000883  00000-0 -40404-4 0  9994","FILE":"3637924","COUNTRY_CODE":"US","TLE_LINE2":"2 48387  53.0558  89.6585 0001249  96.0902 264.0229 15.06393283 82477","GP_ID":"216527825","INCLINATION":"53.0558","PERIOD":"95.593","MEAN_ANOMALY":"264.0229","CENTER_NAME":"EARTH","EPHEMERIS_TYPE":"0","ARG_OF_PERICENTER":"96.0902","MEAN_ELEMENT_THEORY":"SGP4","ECCENTRICITY":"0.00012490","RCS_SIZE":"MEDIUM","PERIAPSIS":"546.369","MEAN_MOTION_DOT":"-0.00000883","MEAN_MOTION_DDOT":"0.0000000000000","REF_FRAME":"TEME","BSTAR":"-0.00004040400000","OBJECT_ID":"2021-038AL","DECAY_DATE":null,"OBJECT_TYPE":"PAYLOAD","CLASSIFICATION_TYPE":"U","SEMIMAJOR_AXIS":"6925.369","EPOCH":"2022-10-30T20:08:03.997824","APOAPSIS":"548.099","NORAD_CAT_ID":"48387","REV_AT_EPOCH":"8247","OBJECT_NAME":"STARLINK-2600","MEAN_MOTION":"15.06393283","SITE":"AFETR","ELEMENT_SET_NO":"999","TIME_SYSTEM":"UTC","LAUNCH_DATE":"2021-05-04"},{"ECCENTRICITY":"0.00012590","MEAN_MOTION_DOT":"-0.00001319","MEAN_MOTION_DDOT":"0.0000000000000","RCS_SIZE":"LARGE","PERIAPSIS":"546.360","REF_FRAME":"TEME","PERIOD":"95.593","INCLINATION":"53.0552","MEAN_ANOMALY":"242.5883","CENTER_NAME":"EARTH","ARG_OF_PERICENTER":"117.5234","EPHEMERIS_TYPE":"0","MEAN_ELEMENT_THEORY":"SGP4","TLE_LINE1":"1 48388U 21038AM  22303.56986960 -.00001319  00000-0 -69700-4 0  9996","FILE":"3637924","GP_ID":"216527576","COUNTRY_CODE":"US","TLE_LINE2":"2 48388  53.0552  90.8899 0001259 117.5234 242.5883 15.06394050 82438","RA_OF_ASC_NODE":"90.8899","REV_AT_EPOCH":"8243","OBJECT_NAME":"STARLINK-2594","MEAN_MOTION":"15.06394050","SITE":"AFETR","ELEMENT_SET_NO":"999","LAUNCH_DATE":"2021-05-04","TIME_SYSTEM":"UTC","APOAPSIS":"548.104","NORAD_CAT_ID":"48388","CLASSIFICATION_TYPE":"U","OBJECT_TYPE":"PAYLOAD","SEMIMAJOR_AXIS":"6925.367","EPOCH":"2022-10-30T13:40:36.733440","BSTAR":"-0.00006970000000","OBJECT_ID":"2021-038AM","DECAY_DATE":null},{"ECCENTRICITY":"0.00013900","MEAN_MOTION_DDOT":"0.0000000000000","MEAN_MOTION_DOT":"0.00000230","PERIAPSIS":"546.258","RCS_SIZE":"LARGE","REF_FRAME":"TEME","INCLINATION":"53.0557","PERIOD":"95.592","MEAN_ANOMALY":"243.9344","CENTER_NAME":"EARTH","ARG_OF_PERICENTER":"116.1788","EPHEMERIS_TYPE":"0","MEAN_ELEMENT_THEORY":"SGP4","TLE_LINE1":"1 48389U 21038AN  22303.82186131  .00000230  00000-0  34327-4 0  9994","FILE":"3637924","GP_ID":"216528322","COUNTRY_CODE":"US","TLE_LINE2":"2 48389  53.0557  84.7547 0001390 116.1788 243.9344 15.06397540 82536","RA_OF_ASC_NODE":"84.7547","REV_AT_EPOCH":"8253","OBJECT_NAME":"STARLINK-1904","ELEMENT_SET_NO":"999","SITE":"AFETR","MEAN_MOTION":"15.06397540","LAUNCH_DATE":"2021-05-04","TIME_SYSTEM":"UTC","APOAPSIS":"548.184","NORAD_CAT_ID":"48389","CLASSIFICATION_TYPE":"U","OBJECT_TYPE":"PAYLOAD","SEMIMAJOR_AXIS":"6925.356","EPOCH":"2022-10-30T19:43:28.817184","BSTAR":"0.00003432700000","OBJECT_ID":"2021-038AN","DECAY_DATE":null},{"MEAN_ELEMENT_THEORY":"SGP4","EPHEMERIS_TYPE":"0","ARG_OF_PERICENTER":"101.8698","CENTER_NAME":"EARTH","INCLINATION":"53.0557","PERIOD":"95.592","MEAN_ANOMALY":"258.2438","REF_FRAME":"TEME","MEAN_MOTION_DOT":"0.00000564","MEAN_MOTION_DDOT":"0.0000000000000","PERIAPSIS":"546.290","RCS_SIZE":"LARGE","ECCENTRICITY":"0.00013090","RA_OF_ASC_NODE":"84.7724","GP_ID":"216528566","COUNTRY_CODE":"US","TLE_LINE2":"2 48390  53.0557  84.7724 0001309 101.8698 258.2438 15.06405642 83757","FILE":"3637924","TLE_LINE1":"1 48390U 21038AP  22303.81912287  .00000564  00000-0  56773-4 0  9993","NORAD_CAT_ID":"48390","APOAPSIS":"548.103","LAUNCH_DATE":"2021-05-04","TIME_SYSTEM":"UTC","ELEMENT_SET_NO":"999","SITE":"AFETR","MEAN_MOTION":"15.06405642","OBJECT_NAME":"STARLINK-2586","REV_AT_EPOCH":"8375","DECAY_DATE":null,"OBJECT_ID":"2021-038AP","BSTAR":"0.00005677300000","EPOCH":"2022-10-30T19:39:32.215968","SEMIMAJOR_AXIS":"6925.331","CLASSIFICATION_TYPE":"U","OBJECT_TYPE":"PAYLOAD"},{"GP_ID":"216527326","TLE_LINE2":"2 48391  53.0554  85.6896 0001699  95.2461 264.8722 15.06381617 83722","COUNTRY_CODE":"US","FILE":"3637924","TLE_LINE1":"1 48391U 21038AQ  22303.61640737  .00001844  00000-0  14273-3 0  9990","RA_OF_ASC_NODE":"85.6896","REF_FRAME":"TEME","MEAN_MOTION_DDOT":"0.0000000000000","MEAN_MOTION_DOT":"0.00001844","PERIAPSIS":"546.093","RCS_SIZE":"LARGE","ECCENTRICITY":"0.00016990","MEAN_ELEMENT_THEORY":"SGP4","EPHEMERIS_TYPE":"0","ARG_OF_PERICENTER":"95.2461","CENTER_NAME":"EARTH","INCLINATION":"53.0554","PERIOD":"95.593","MEAN_ANOMALY":"264.8722","EPOCH":"2022-10-30T14:47:37.596768","SEMIMAJOR_AXIS":"6925.405","CLASSIFICATION_TYPE":"U","OBJECT_TYPE":"PAYLOAD","DECAY_DATE":null,"OBJECT_ID":"2021-038AQ","BSTAR":"0.00014273000000","LAUNCH_DATE":"2021-05-04","TIME_SYSTEM":"UTC","ELEMENT_SET_NO":"999","SITE":"AFETR","MEAN_MOTION":"15.06381617","OBJECT_NAME":"STARLINK-2607","REV_AT_EPOCH":"8372","NORAD_CAT_ID":"48391","APOAPSIS":"548.447"},{"EPOCH":"2022-10-30T19:28:55.400448","SEMIMAJOR_AXIS":"6925.332","OBJECT_TYPE":"PAYLOAD","CLASSIFICATION_TYPE":"U","DECAY_DATE":null,"OBJECT_ID":"2021-038AR","BSTAR":"0.00002630500000","TIME_SYSTEM":"UTC","LAUNCH_DATE":"2021-05-04","SITE":"AFETR","ELEMENT_SET_NO":"999","MEAN_MOTION":"15.06405380","OBJECT_NAME":"STARLINK-2605","REV_AT_EPOCH":"8375","NORAD_CAT_ID":"48392","APOAPSIS":"548.214","COUNTRY_CODE":"US","TLE_LINE2":"2 48392  53.0531  84.8012 0001469 121.7722 238.3410 15.06405380 83756","GP_ID":"216528076","FILE":"3637924","TLE_LINE1":"1 48392U 21038AR  22303.81175232  .00000110  00000-0  26305-4 0  9991","RA_OF_ASC_NODE":"84.8012","REF_FRAME":"TEME","RCS_SIZE":"LARGE","PERIAPSIS":"546.180","MEAN_MOTION_DOT":"0.00000110","MEAN_MOTION_DDOT":"0.0000000000000","ECCENTRICITY":"0.00014690","MEAN_ELEMENT_THEORY":"SGP4","EPHEMERIS_TYPE":"0","ARG_OF_PERICENTER":"121.7722","CENTER_NAME":"EARTH","PERIOD":"95.592","MEAN_ANOMALY":"238.3410","INCLINATION":"53.0531"},{"RA_OF_ASC_NODE":"84.8154","TLE_LINE1":"1 48393U 21038AS  22303.80805903  .00001720  00000-0  13433-3 0  9991","FILE":"3637924","GP_ID":"216528822","COUNTRY_CODE":"US","TLE_LINE2":"2 48393  53.0546  84.8154 0001547  78.5773 281.5390 15.06394923 83759","MEAN_ANOMALY":"281.5390","PERIOD":"95.592","INCLINATION":"53.0546","CENTER_NAME":"EARTH","EPHEMERIS_TYPE":"0","ARG_OF_PERICENTER":"78.5773","MEAN_ELEMENT_THEORY":"SGP4","ECCENTRICITY":"0.00015470","MEAN_MOTION_DDOT":"0.0000000000000","MEAN_MOTION_DOT":"0.00001720","RCS_SIZE":"LARGE","PERIAPSIS":"546.158","REF_FRAME":"TEME","BSTAR":"0.00013433000000","OBJECT_ID":"2021-038AS","DECAY_DATE":null,"CLASSIFICATION_TYPE":"U","OBJECT_TYPE":"PAYLOAD","SEMIMAJOR_AXIS":"6925.364","EPOCH":"2022-10-30T19:23:36.300192","APOAPSIS":"548.300","NORAD_CAT_ID":"48393","REV_AT_EPOCH":"8375","OBJECT_NAME":"STARLINK-2602","MEAN_MOTION":"15.06394923","SITE":"AFETR","ELEMENT_SET_NO":"999","LAUNCH_DATE":"2021-05-04","TIME_SYSTEM":"UTC"},{"CLASSIFICATION_TYPE":"U","OBJECT_TYPE":"PAYLOAD","SEMIMAJOR_AXIS":"6925.376","EPOCH":"2022-10-30T16:07:14.258784","BSTAR":"-0.00005474900000","OBJECT_ID":"2021-038AT","DECAY_DATE":null,"REV_AT_EPOCH":"8373","OBJECT_NAME":"STARLINK-2573","SITE":"AFETR","MEAN_MOTION":"15.06391207","ELEMENT_SET_NO":"999","LAUNCH_DATE":"2021-05-04","TIME_SYSTEM":"UTC","APOAPSIS":"548.148","NORAD_CAT_ID":"48394","TLE_LINE1":"1 48394U 21038AT  22303.67169281 -.00001097  00000-0 -54749-4 0  9994","FILE":"3637924","GP_ID":"216529066","TLE_LINE2":"2 48394  53.0527  85.4329 0001311  94.3536 265.7603 15.06391207 83733","COUNTRY_CODE":"US","RA_OF_ASC_NODE":"85.4329","ECCENTRICITY":"0.00013110","MEAN_MOTION_DDOT":"0.0000000000000","MEAN_MOTION_DOT":"-0.00001097","PERIAPSIS":"546.333","RCS_SIZE":"LARGE","REF_FRAME":"TEME","MEAN_ANOMALY":"265.7603","PERIOD":"95.593","INCLINATION":"53.0527","CENTER_NAME":"EARTH","ARG_OF_PERICENTER":"94.3536","EPHEMERIS_TYPE":"0","MEAN_ELEMENT_THEORY":"SGP4"},{"APOAPSIS":"548.236","NORAD_CAT_ID":"48395","REV_AT_EPOCH":"8374","OBJECT_NAME":"STARLINK-2574","ELEMENT_SET_NO":"999","SITE":"AFETR","MEAN_MOTION":"15.06402530","LAUNCH_DATE":"2021-05-04","TIME_SYSTEM":"UTC","BSTAR":"0.00010585000000","OBJECT_ID":"2021-038AU","DECAY_DATE":null,"CLASSIFICATION_TYPE":"U","OBJECT_TYPE":"PAYLOAD","SEMIMAJOR_AXIS":"6925.341","EPOCH":"2022-10-30T18:46:33.851136","PERIOD":"95.592","MEAN_ANOMALY":"243.2490","INCLINATION":"53.0532","CENTER_NAME":"EARTH","ARG_OF_PERICENTER":"116.8651","EPHEMERIS_TYPE":"0","MEAN_ELEMENT_THEORY":"SGP4","ECCENTRICITY":"0.00014870","MEAN_MOTION_DDOT":"0.0000000000000","MEAN_MOTION_DOT":"0.00001296","PERIAPSIS":"546.176","RCS_SIZE":"LARGE","REF_FRAME":"TEME","RA_OF_ASC_NODE":"85.5612","TLE_LINE1":"1 48395U 21038AU  22303.78233624  .00001296  00000-0  10585-3 0  9998","FILE":"3637924","GP_ID":"216527826","TLE_LINE2":"2 48395  53.0532  85.5612 0001487 116.8651 243.2490 15.06402530 83746","COUNTRY_CODE":"US"},{"MEAN_ELEMENT_THEORY":"SGP4","ARG_OF_PERICENTER":"99.9860","EPHEMERIS_TYPE":"0","CENTER_NAME":"EARTH","MEAN_ANOMALY":"260.1277","PERIOD":"95.592","INCLINATION":"53.0538","REF_FRAME":"TEME","MEAN_MOTION_DDOT":"0.0000000000000","MEAN_MOTION_DOT":"-0.00000585","PERIAPSIS":"546.306","RCS_SIZE":"LARGE","ECCENTRICITY":"0.00013100","RA_OF_ASC_NODE":"85.1575","GP_ID":"216527577","TLE_LINE2":"2 48396  53.0538  85.1575 0001310  99.9860 260.1277 15.06399977 83746","COUNTRY_CODE":"US","FILE":"3637924","TLE_LINE1":"1 48396U 21038AV  22303.73434796 -.00000585  00000-0 -20402-4 0  9999","NORAD_CAT_ID":"48396","APOAPSIS":"548.121","LAUNCH_DATE":"2021-05-04","TIME_SYSTEM":"UTC","SITE":"AFETR","MEAN_MOTION":"15.06399977","ELEMENT_SET_NO":"999","OBJECT_NAME":"STARLINK-2575","REV_AT_EPOCH":"8374","DECAY_DATE":null,"OBJECT_ID":"2021-038AV","BSTAR":"-0.00002040200000","EPOCH":"2022-10-30T17:37:27.663744","SEMIMAJOR_AXIS":"6925.349","CLASSIFICATION_TYPE":"U","OBJECT_TYPE":"PAYLOAD"}];
